NEE-02 KRYSAOR          
1 39441U 13066AB  26068.37805844  .00004234  00000+0  46919-3 0  9992
2 39441  97.8816   8.3817 0067760  38.0821 322.5155 14.86160783661377
STARLINK-5498           
1 55633U 23021F   26068.72334323 -.00000662  00000+0 -47725-4 0  9993
2 55633  69.9995 204.3534 0003412 274.9157  85.1613 14.98324975168301
